OUFTI-1                 
1 41458U 16025C   22304.49654630  .00027428  00000+0  10574-2 0  9995
2 41458  98.1939 121.8462 0132356 161.2666 199.3505 15.18429659358193
E-ST@R-II               
1 41459U 16025D   22304.49108357  .00025078  00000+0  99806-3 0  9991
2 41459  98.1935 120.1246 0136747 166.6507 193.8730 15.16948465358090
AAUSAT 4                
1 41460U 16025E   22304.28779259  .00038876  00000+0  12819-2 0  9993
2 41460  98.1835 127.5169 0112989 138.3203  35.4099 15.25302222358596
AIST-2D (RS-48)         
1 41465U 16026B   22304.06587478  .00026575  00000+0  56166-3 0  9992
2 41465  97.0313 175.9746 0009188  11.9223 125.6318 15.45095178364440
NUSAT-1 (FRESCO)        
1 41557U 16033B   22304.58682178  .00022691  00000+0  59750-3 0  9999
2 41557  97.3908  42.8345 0009506 243.2948 244.4722 15.38503037358284
NUSAT-2 (BATATA)        
1 41558U 16033C   22304.76816719  .00023109  00000+0  57181-3 0  9991
2 41558  97.4144  49.5057 0009540 231.3726 231.9843 15.40404523358606
CARTOSAT-2C             
1 41599U 16040A   22304.49174399  .00004620  00000+0  22177-3 0  9999
2 41599  97.4707   2.7848 0014353  69.4909  44.7618 15.19269327352584
SATHYABAMASAT           
1 41600U 16040B   22304.40475186  .00030052  00000+0  80257-3 0  9992
2 41600  97.2025 353.8745 0009196   2.1457 357.9826 15.38011336353751
LAPAN-A3                
1 41603U 16040E   22304.77025238  .00001821  00000+0  84751-4 0  9990
2 41603  97.1931 335.7916 0014325  47.1572  78.9339 15.21058919352753
BIROS                   
1 41604U 16040F   22304.43562024  .00006032  00000+0  24107-3 0  9990
2 41604  97.1956 343.6997 0011869  21.0597 339.1128 15.25409038353188
SWAYAM                  
1 41607U 16040J   22304.38620314  .00026308  00000+0  73594-3 0  9996
2 41607  97.1977 351.8476 0009558   3.4730 356.6579 15.36594138353612
BEESAT-4                
1 41619U 16040W   22304.09352850  .00027799  00000+0  80981-3 0  9997
2 41619  97.1996 351.3065 0007897   1.9164 358.2109 15.35327685341505
3CAT-2                  
1 41732U 16051B   22304.36175972  .00019901  00000+0  55278-3 0  9990
2 41732  97.3855 227.6048 0011269 153.4601 334.3974 15.36855784346170
PRATHAM                 
1 41783U 16059A   22304.42425999  .00000670  00000+0  13703-3 0  9998
2 41783  97.8990 340.4416 0034690 103.9052 256.6014 14.63481692325515
ALSAT 1N                
1 41789U 16059G   22304.76904103  .00000630  00000+0  12584-3 0  9992
2 41789  97.9014 345.6612 0029556  85.4354 275.0223 14.64841573325828
LISHUI 1-01             
1 41845U 16066E   22304.42378591  .00051102  00000+0  42499-2 0  9999
2 41845  98.7217  87.3006 0183738 356.9986   3.0426 14.86257754316934
CARTOSAT-2D             
1 41948U 17008A   22304.56895870  .00004384  00000+0  21079-3 0  9991
2 41948  97.4490   2.5226 0006172 201.9305 158.1809 15.19315130316465
NAYIF-1 (EO-88)         
1 42017U 17008BX  22303.16334998  .00031637  00000+0  80213-3 0  9999
2 42017  97.2527   7.5996 0005540 118.3828 241.7978 15.39626633317765
ZHUHAI-1 02 (CAS-4B)    
1 42759U 17034B   22304.89275206  .00005543  00000+0  32062-3 0  9994
2 42759  43.0181 300.1285 0008797  65.1828  11.3776 15.13003177297018
ZHUHAI-1 01 (CAS-4A)    
1 42761U 17034D   22304.85333229  .00005646  00000+0  32553-3 0  9992
2 42761  43.0183 299.0364 0008855  69.3353 359.6055 15.13094242297012
UCLSAT                  
1 42765U 17036A   22304.05550811  .00022188  00000+0  69172-3 0  9995
2 42765  97.1816 342.6340 0008362 186.6352 173.4782 15.33218950298604
NIUSAT                  
1 42766U 17036B   22304.33511781  .00013382  00000+0  47925-3 0  9998
2 42766  97.1886 337.3975 0012347 195.6233 164.4628 15.28802289297542
CARTOSAT-2E             
1 42767U 17036C   22304.73594301  .00004524  00000+0  21731-3 0  9997
2 42767  97.4381   3.3447 0006898 265.0517 189.7111 15.19327997297052
LITUANICASAT-2          
1 42768U 17036D   22304.36461778  .00052568  00000+0  11485-2 0  9993
2 42768  97.1880 347.3175 0009340 164.9389 195.2140 15.43970652298157
AALTO-1                 
1 42775U 17036L   22304.52268437  .00011285  00000+0  41995-3 0  9997
2 42775  97.1840 337.2318 0011402 194.9049 165.1857 15.27591980297533
URSA MAIOR              
1 42776U 17036M   22304.38080375  .00012364  00000+0  44936-3 0  9992
2 42776  97.1850 337.9760 0011108 193.1240 166.9712 15.28350292297551
COMPASS 2               
1 42777U 17036N   22304.43140732  .00033969  00000+0  90668-3 0  9990
2 42777  97.1881 345.9047 0009019 170.4030 189.7390 15.38005157298000
MAX VALIER SAT          
1 42778U 17036P   22304.07977514  .00014824  00000+0  52170-3 0  9992
2 42778  97.1903 340.5960 0009730 193.2115 166.8872 15.29378417297617
PEGASUS                 
1 42784U 17036V   22304.39293177  .00017613  00000+0  57022-3 0  9990
2 42784  97.1843 342.0636 0009042 190.4000 169.7056 15.32051303297805
NUDTSAT                 
1 42787U 17036Y   22304.90236584  .00038329  00000+0  96868-3 0  9997
2 42787  97.1854 347.8801 0008480 172.5992 187.5392 15.39663153298040
SUCHAI                  
1 42788U 17036Z   22304.07328974  .00027417  00000+0  81611-3 0  9997
2 42788  97.1840 343.8106 0008424 184.2041 175.9133 15.34645821297953
SKCUBE                  
1 42789U 17036AA  22304.34701770  .00019731  00000+0  61071-3 0  9995
2 42789  97.1839 343.3578 0008630 184.7038 175.4125 15.33470028297871
VZLUSAT-1               
1 42790U 17036AB  22304.08271464  .00039685  00000+0  10148-2 0  9998
2 42790  97.1853 347.0036 0007580 172.8240 187.3116 15.39303475298066
ROBUSTA-1B              
1 42792U 17036AD  22304.11593378  .00021994  00000+0  66305-3 0  9996
2 42792  97.1839 343.8196 0008029 183.9534 176.1648 15.34290000297891
D-SAT                   
1 42794U 17036AF  22304.74249915  .00005341  00000+0  44643-3 0  9991
2 42794  97.4570 303.0409 0121219 349.5851  10.2860 14.93302987291847
NORSAT 2                
1 42828U 17042D   22304.13807329  .00004115  00000+0  39638-3 0  9994
2 42828  97.4128 152.8627 0012123 270.4340  89.5492 14.93403828288396
TECHNOSAT               
1 42829U 17042E   22304.82993188  .00001941  00000+0  19533-3 0  9996
2 42829  97.4042 150.9310 0012318 271.9936  87.9874 14.92216094288429
2017-042F               
1 42830U 17042F   22304.55463091  .00008513  00000+0  75629-3 0  9993
2 42830  97.4180 155.9932 0011165 258.9633 101.0334 14.96316351288629
FLYING LAPTOP           
1 42831U 17042G   22304.81665554  .00002290  00000+0  23041-3 0  9998
2 42831  97.4064 151.2564 0012065 271.8816  88.1016 14.92065376288422
CORVUS BC2              
1 42846U 17042X   22304.53097571  .00002960  00000+0  28769-3 0  9997
2 42846  97.4044 154.0516 0007705 259.3012 100.7341 14.93274925288580
CORVUS BC1              
1 42847U 17042Y   22304.80362015  .00002369  00000+0  23075-3 0  9994
2 42847  97.4048 154.6362 0007461 257.5473 102.4913 14.93357569288636
CZ-4C R/B               
1 43012U 17072C   22304.37267439  .00000409  00000+0  94767-4 0  9998
2 43012  98.6827 346.2402 0125943 261.6889  97.0011 14.56434210263646
RADFXSAT (FOX-1B)       
1 43017U 17073E   22304.63668133  .00005321  00000+0  39258-3 0  9990
2 43017  97.6550 193.2080 0246797 101.4074 261.4970 14.82407852267289
EAGLESAT 1              
1 43018U 17073F   22304.21277102  .00008171  00000+0  57391-3 0  9991
2 43018  97.6590 195.1354 0237371  95.0996 267.7357 14.85308800267237
INS-1C                  
1 43116U 18004F   22304.16254430  .00020642  00000+0  63931-3 0  9992
2 43116  97.3640  19.4092 0006608 221.7708 138.3031 15.33460094267108
FLOCK 3P'-3             
1 43119U 18004J   22304.45450931  .00029922  00000+0  10531-2 0  9998
2 43119  97.3627  17.0019 0007553 240.5063 119.5424 15.29251951266989
FLOCK 3P'-2             
1 43120U 18004K   22304.17058094  .00025749  00000+0  92023-3 0  9993
2 43120  97.3629  16.2598 0007494 242.8189 117.2288 15.28781413266909
FLOCK 3P'-1             
1 43121U 18004L   22304.62365929  .00056733  00000+0  12120-2 0  9998
2 43121  97.3688  24.1735 0005637 204.8021 155.2957 15.44645490267397
FLOCK 3P'-4             
1 43122U 18004M   22304.15774770  .00028601  00000+0  10222-2 0  9999
2 43122  97.3635  16.4289 0007402 244.9428 115.1044 15.28758738266906
MICROMAS-2A             
1 43131U 18004W   22304.47829604  .00050516  00000+0  11100-2 0  9997
2 43131  97.3640  24.5991 0005320 214.8202 145.2698 15.43842230267509
PICSAT                  
1 43132U 18004X   22304.19029814  .00021796  00000+0  63508-3 0  9990
2 43132  97.3602  20.0649 0006388 224.9991 135.0735 15.35383202267207
CNUSAIL-1               
1 43133U 18004Y   22304.16507120  .00015394  00000+0  51204-3 0  9996
2 43133  97.3551  17.2537 0006762 234.9732 125.0875 15.31232358267031
2018-004Z               
1 43134U 18004Z   22304.45121952  .00021196  00000+0  65245-3 0  9991
2 43134  97.3583  19.2735 0006439 228.5604 131.5086 15.33650776267189
FOX-1D (AO-92)          
1 43137U 18004AC  22304.47083895  .00018327  00000+0  58899-3 0  9998
2 43137  97.3563  18.5442 0006235 231.0106 129.0581 15.32305120267144
STEP CUBE LAB           
1 43138U 18004AD  22304.48959494  .00040194  00000+0  98792-3 0  9990
2 43138  97.3642  23.4919 0005647 220.1691 139.9138 15.40523378267437
XIAOXIANG-2             
1 43155U 18008A   22304.46132916  .00009410  00000+0  47361-3 0  9995
2 43155  97.3366 358.5228 0016416  37.0257  90.7093 15.17300726263886
ZHOU ENLAI              
1 43156U 18008B   22304.49070884  .00010595  00000+0  53522-3 0  9996
2 43156  97.3405 358.4715 0013839  37.0675  75.7737 15.17171538263819
QUANTUTONG 1            
1 43158U 18008D   22304.10601615  .00008451  00000+0  44435-3 0  9999
2 43158  97.3370 355.7853 0012744  42.3261  19.7327 15.15837574263640
S-NET D                 
1 43186U 18014G   22304.61654473  .00004114  00000+0  34895-3 0  9994
2 43186  97.6456 207.6947 0010209 188.0990 172.0069 14.98442228259301
